STARLINK-2225
1 48574U 21041X   26061.16668981  .01548863  00000+0  78870-1 0  9991
2 48574  53.0819 135.3997 0002101  91.4320  96.2601 15.12946582  5828
